CCSDS_OMM_VERS = 2.0
CREATION_DATE  = 
ORIGINATOR     = 

OBJECT_NAME    = STARLINK-36749
OBJECT_ID      = 2026-026P
CENTER_NAME    = EARTH
REF_FRAME      = TEME
TIME_SYSTEM    = UTC
MEAN_ELEMENT_THEORY = SGP/SGP4

EPOCH          = 2026-02-25T14:00:03.000384
MEAN_MOTION    = 15.80785844
ECCENTRICITY   = .00009028
INCLINATION    = 97.2758
RA_OF_ASC_NODE = 110.6389
ARG_OF_PERICENTER = 96.6865
MEAN_ANOMALY   = 271.9616

EPHEMERIS_TYPE = 0
CLASSIFICATION_TYPE = U
NORAD_CAT_ID   = 67734
ELEMENT_SET_NO = 999
REV_AT_EPOCH   = 336
BSTAR          = .2728368E-3
MEAN_MOTION_DOT = .5236E-3
MEAN_MOTION_DDOT = 0

CCSDS_OMM_VERS = 2.0
CREATION_DATE  = 
ORIGINATOR     = 

OBJECT_NAME    = STARLINK-36691
OBJECT_ID      = 2026-026Q
CENTER_NAME    = EARTH
REF_FRAME      = TEME
TIME_SYSTEM    = UTC
MEAN_ELEMENT_THEORY = SGP/SGP4

EPOCH          = 2026-02-25T14:00:03.000384
MEAN_MOTION    = 15.80827632
ECCENTRICITY   = .000125
INCLINATION    = 97.2730
RA_OF_ASC_NODE = 110.6466
ARG_OF_PERICENTER = 91.2796
MEAN_ANOMALY   = 296.8184

EPHEMERIS_TYPE = 0
CLASSIFICATION_TYPE = U
NORAD_CAT_ID   = 67735
ELEMENT_SET_NO = 999
REV_AT_EPOCH   = 350
BSTAR          = .10248883E-3
MEAN_MOTION_DOT = .19544E-3
MEAN_MOTION_DDOT = 0

CCSDS_OMM_VERS = 2.0
CREATION_DATE  = 
ORIGINATOR     = 

OBJECT_NAME    = STARLINK-36317
OBJECT_ID      = 2026-026R
CENTER_NAME    = EARTH
REF_FRAME      = TEME
TIME_SYSTEM    = UTC
MEAN_ELEMENT_THEORY = SGP/SGP4

EPOCH          = 2026-02-25T14:00:03.000384
MEAN_MOTION    = 15.80803674
ECCENTRICITY   = .00012421
INCLINATION    = 97.2731
RA_OF_ASC_NODE = 110.6420
ARG_OF_PERICENTER = 91.5121
MEAN_ANOMALY   = 287.1131

EPHEMERIS_TYPE = 0
CLASSIFICATION_TYPE = U
NORAD_CAT_ID   = 67736
ELEMENT_SET_NO = 999
REV_AT_EPOCH   = 336
BSTAR          = .23578173E-3
MEAN_MOTION_DOT = .4523E-3
MEAN_MOTION_DDOT = 0

CCSDS_OMM_VERS = 2.0
CREATION_DATE  = 
ORIGINATOR     = 

OBJECT_NAME    = STARLINK-36330
OBJECT_ID      = 2026-026S
CENTER_NAME    = EARTH
REF_FRAME      = TEME
TIME_SYSTEM    = UTC
MEAN_ELEMENT_THEORY = SGP/SGP4

EPOCH          = 2026-02-25T14:00:03.000384
MEAN_MOTION    = 15.80786362
ECCENTRICITY   = .00014224
INCLINATION    = 97.2724
RA_OF_ASC_NODE = 110.6490
ARG_OF_PERICENTER = 91.7244
MEAN_ANOMALY   = 302.6173

EPHEMERIS_TYPE = 0
CLASSIFICATION_TYPE = U
NORAD_CAT_ID   = 67737
ELEMENT_SET_NO = 999
REV_AT_EPOCH   = 336
BSTAR          = .49791489E-3
MEAN_MOTION_DOT = .9616E-3
MEAN_MOTION_DDOT = 0

CCSDS_OMM_VERS = 2.0
CREATION_DATE  = 
ORIGINATOR     = 

OBJECT_NAME    = STARLINK-36327
OBJECT_ID      = 2026-026T
CENTER_NAME    = EARTH
REF_FRAME      = TEME
TIME_SYSTEM    = UTC
MEAN_ELEMENT_THEORY = SGP/SGP4

EPOCH          = 2026-02-25T14:00:03.000384
MEAN_MOTION    = 15.80752218
ECCENTRICITY   = .00011496
INCLINATION    = 97.2722
RA_OF_ASC_NODE = 110.6530
ARG_OF_PERICENTER = 114.0068
MEAN_ANOMALY   = 288.3228

EPHEMERIS_TYPE = 0
CLASSIFICATION_TYPE = U
NORAD_CAT_ID   = 67738
ELEMENT_SET_NO = 999
REV_AT_EPOCH   = 336
BSTAR          = .99956712E-3
MEAN_MOTION_DOT = .195095E-2
MEAN_MOTION_DDOT = 0

CCSDS_OMM_VERS = 2.0
CREATION_DATE  = 
ORIGINATOR     = 

OBJECT_NAME    = STARLINK-36329
OBJECT_ID      = 2026-026U
CENTER_NAME    = EARTH
REF_FRAME      = TEME
TIME_SYSTEM    = UTC
MEAN_ELEMENT_THEORY = SGP/SGP4

EPOCH          = 2026-02-25T14:00:03.000384
MEAN_MOTION    = 15.80704366
ECCENTRICITY   = .00014341
INCLINATION    = 97.2682
RA_OF_ASC_NODE = 110.6710
ARG_OF_PERICENTER = 105.1415
MEAN_ANOMALY   = 345.3122

EPHEMERIS_TYPE = 0
CLASSIFICATION_TYPE = U
NORAD_CAT_ID   = 67739
ELEMENT_SET_NO = 999
REV_AT_EPOCH   = 336
BSTAR          = .15038215E-2
MEAN_MOTION_DOT = .296405E-2
MEAN_MOTION_DDOT = 0

CCSDS_OMM_VERS = 2.0
CREATION_DATE  = 
ORIGINATOR     = 

OBJECT_NAME    = STARLINK-36737
OBJECT_ID      = 2026-026V
CENTER_NAME    = EARTH
REF_FRAME      = TEME
TIME_SYSTEM    = UTC
MEAN_ELEMENT_THEORY = SGP/SGP4

EPOCH          = 2026-02-25T14:00:03.000384
MEAN_MOTION    = 15.80731386
ECCENTRICITY   = .00010839
INCLINATION    = 97.2716
RA_OF_ASC_NODE = 110.6555
ARG_OF_PERICENTER = 92.7011
MEAN_ANOMALY   = 318.3923

EPHEMERIS_TYPE = 0
CLASSIFICATION_TYPE = U
NORAD_CAT_ID   = 67740
ELEMENT_SET_NO = 999
REV_AT_EPOCH   = 336
BSTAR          = .11556253E-2
MEAN_MOTION_DOT = .226175E-2
MEAN_MOTION_DDOT = 0

CCSDS_OMM_VERS = 2.0
CREATION_DATE  = 
ORIGINATOR     = 

OBJECT_NAME    = STARLINK-36740
OBJECT_ID      = 2026-026W
CENTER_NAME    = EARTH
REF_FRAME      = TEME
TIME_SYSTEM    = UTC
MEAN_ELEMENT_THEORY = SGP/SGP4

EPOCH          = 2026-02-25T14:00:03.000384
MEAN_MOTION    = 15.80757262
ECCENTRICITY   = .00014889
INCLINATION    = 97.2693
RA_OF_ASC_NODE = 110.6677
ARG_OF_PERICENTER = 94.2833
MEAN_ANOMALY   = 345.7812

EPHEMERIS_TYPE = 0
CLASSIFICATION_TYPE = U
NORAD_CAT_ID   = 67741
ELEMENT_SET_NO = 999
REV_AT_EPOCH   = 336
BSTAR          = .81425137E-3
MEAN_MOTION_DOT = .158262E-2
MEAN_MOTION_DDOT = 0

CCSDS_OMM_VERS = 2.0
CREATION_DATE  = 
ORIGINATOR     = 

OBJECT_NAME    = STARLINK-36693
OBJECT_ID      = 2026-026X
CENTER_NAME    = EARTH
REF_FRAME      = TEME
TIME_SYSTEM    = UTC
MEAN_ELEMENT_THEORY = SGP/SGP4

EPOCH          = 2026-02-25T14:00:03.000384
MEAN_MOTION    = 15.80792243
ECCENTRICITY   = .00015612
INCLINATION    = 97.2714
RA_OF_ASC_NODE = 110.6587
ARG_OF_PERICENTER = 94.1611
MEAN_ANOMALY   = 323.5376

EPHEMERIS_TYPE = 0
CLASSIFICATION_TYPE = U
NORAD_CAT_ID   = 67742
ELEMENT_SET_NO = 999
REV_AT_EPOCH   = 350
BSTAR          = .64549718E-3
MEAN_MOTION_DOT = .125155E-2
MEAN_MOTION_DDOT = 0

CCSDS_OMM_VERS = 2.0
CREATION_DATE  = 
ORIGINATOR     = 

OBJECT_NAME    = STARLINK-36717
OBJECT_ID      = 2026-026Y
CENTER_NAME    = EARTH
REF_FRAME      = TEME
TIME_SYSTEM    = UTC
MEAN_ELEMENT_THEORY = SGP/SGP4

EPOCH          = 2026-02-25T14:00:03.000384
MEAN_MOTION    = 15.80754880
ECCENTRICITY   = .00010127
INCLINATION    = 97.2689
RA_OF_ASC_NODE = 110.6644
ARG_OF_PERICENTER = 89.5966
MEAN_ANOMALY   = 343.8292

EPHEMERIS_TYPE = 0
CLASSIFICATION_TYPE = U
NORAD_CAT_ID   = 67743
ELEMENT_SET_NO = 999
REV_AT_EPOCH   = 350
BSTAR          = .98221527E-3
MEAN_MOTION_DOT = .191653E-2
MEAN_MOTION_DDOT = 0

CCSDS_OMM_VERS = 2.0
CREATION_DATE  = 
ORIGINATOR     = 

OBJECT_NAME    = STARLINK-36692
OBJECT_ID      = 2026-026Z
CENTER_NAME    = EARTH
REF_FRAME      = TEME
TIME_SYSTEM    = UTC
MEAN_ELEMENT_THEORY = SGP/SGP4

EPOCH          = 2026-02-25T14:00:03.000384
MEAN_MOTION    = 15.80763254
ECCENTRICITY   = .00016354
INCLINATION    = 97.2710
RA_OF_ASC_NODE = 110.6616
ARG_OF_PERICENTER = 93.4933
MEAN_ANOMALY   = 332.6137

EPHEMERIS_TYPE = 0
CLASSIFICATION_TYPE = U
NORAD_CAT_ID   = 67744
ELEMENT_SET_NO = 999
REV_AT_EPOCH   = 336
BSTAR          = .77822355E-3
MEAN_MOTION_DOT = .151172E-2
MEAN_MOTION_DDOT = 0

CCSDS_OMM_VERS = 2.0
CREATION_DATE  = 
ORIGINATOR     = 

OBJECT_NAME    = 2026-027A
OBJECT_ID      = 2026-027A
CENTER_NAME    = EARTH
REF_FRAME      = TEME
TIME_SYSTEM    = UTC
MEAN_ELEMENT_THEORY = SGP/SGP4

EPOCH          = 2026-02-25T13:42:21.874464
MEAN_MOTION    = 15.17439387
ECCENTRICITY   = .00094683
INCLINATION    = 97.4881
RA_OF_ASC_NODE = 185.7155
ARG_OF_PERICENTER = 238.6725
MEAN_ANOMALY   = 121.3582

EPHEMERIS_TYPE = 0
CLASSIFICATION_TYPE = U
NORAD_CAT_ID   = 67746
ELEMENT_SET_NO = 999
REV_AT_EPOCH   = 202
BSTAR          = .4284685E-3
MEAN_MOTION_DOT = .8518E-4
MEAN_MOTION_DDOT = 0

