STARLINK-36749          
1 67734U 26026P   26056.58336806  .00052360  00000+0  27284-3 0  9992
2 67734  97.2758 110.6389 0000902  96.6865 271.9616 15.80785844  3360
STARLINK-36691          
1 67735U 26026Q   26056.58336806  .00019544  00000+0  10249-3 0  9993
2 67735  97.2730 110.6466 0001250  91.2796 296.8184 15.80827632  3502
STARLINK-36317          
1 67736U 26026R   26056.58336806  .00045230  00000+0  23578-3 0  9994
2 67736  97.2731 110.6420 0001242  91.5121 287.1131 15.80803674  3369
STARLINK-36330          
1 67737U 26026S   26056.58336806  .00096160  00000+0  49791-3 0  9998
2 67737  97.2724 110.6490 0001422  91.7244 302.6173 15.80786362  3360
STARLINK-36327          
1 67738U 26026T   26056.58336806  .00195095  00000+0  99957-3 0  9995
2 67738  97.2722 110.6530 0001149 114.0068 288.3228 15.80752218  3367
STARLINK-36329          
1 67739U 26026U   26056.58336806  .00296405  00000+0  15038-2 0  9990
2 67739  97.2682 110.6710 0001434 105.1415 345.3122 15.80704366  3365
STARLINK-36737          
1 67740U 26026V   26056.58336806  .00226175  00000+0  11556-2 0  9990
2 67740  97.2716 110.6555 0001083  92.7011 318.3923 15.80731386  3366
STARLINK-36740          
1 67741U 26026W   26056.58336806  .00158262  00000+0  81425-3 0  9995
2 67741  97.2693 110.6677 0001488  94.2833 345.7812 15.80757262  3366
STARLINK-36693          
1 67742U 26026X   26056.58336806  .00125155  00000+0  64550-3 0  9991
2 67742  97.2714 110.6587 0001561  94.1611 323.5376 15.80792243  3509
STARLINK-36717          
1 67743U 26026Y   26056.58336806  .00191653  00000+0  98222-3 0  9991
2 67743  97.2689 110.6644 0001012  89.5966 343.8292 15.80754880  3504
STARLINK-36692          
1 67744U 26026Z   26056.58336806  .00151172  00000+0  77822-3 0  9997
2 67744  97.2710 110.6616 0001635  93.4933 332.6137 15.80763254  3361
2026-027A               
1 67746U 26027A   26056.57108651  .00008518  00000+0  42847-3 0  9998
2 67746  97.4881 185.7155 0009468 238.6725 121.3582 15.17439387  2025
